STARLINK-1470           
1 45772U 20038AU  26068.60892913  .00054678  00000+0  19687-2 0  9990
2 45772  53.0480 174.6971 0002444  12.8687 347.2373 15.28074860317065
STARLINK-2654           
1 48454U 21040AC  26068.61511019  .00007068  00000+0  25046-3 0  9998
2 48454  53.1603 178.4674 0001338  68.4218 291.6926 15.30209025266675
